OBJECT_NAME,OBJECT_ID,EPOCH,MEAN_MOTION,ECCENTRICITY,INCLINATION,RA_OF_ASC_NODE,ARG_OF_PERICENTER,MEAN_ANOMALY,EPHEMERIS_TYPE,CLASSIFICATION_TYPE,NORAD_CAT_ID,ELEMENT_SET_NO,REV_AT_EPOCH,BSTAR,MEAN_MOTION_DOT,MEAN_MOTION_DDOT
BEIDOU-2 IGSO-5 (C10),2011-073A,2026-07-02T17:30:18.330912,1.00270596,.0114527,47.6496,271.3544,222.0502,141.5350,0,U,37948,999,5329,0,-.128E-5,0
LUCH 5A (SDCM/PRN 140),2011-074B,2026-07-02T16:08:29.435424,1.00272754,.0002701,8.7907,73.5828,42.8868,213.3031,0,U,37951,999,5320,0,-.43E-6,0
BEIDOU-2 G5 (C05),2012-008A,2026-07-02T21:06:16.323840,1.00267783,.0007738,3.6110,69.6055,275.8177,310.8475,0,U,38091,999,5252,0,.66E-6,0
BEIDOU-2 M3 (C11),2012-018A,2026-07-02T05:21:52.450272,1.86230266,.0020578,55.7439,304.3684,273.0142,86.7629,0,U,38250,999,9622,0,-.64E-6,0
BEIDOU-2 M4 (C12),2012-018B,2026-07-01T01:57:58.611168,1.86229794,.00115796,55.6447,303.6195,274.1308,85.7452,0,U,38251,999,9620,0,-.69E-6,0
SES-5 (EGNOS/PRN 136),2012-036A,2026-07-02T15:43:01.321824,1.00270830,.0002268,0.0450,320.1883,138.1529,63.0821,0,U,38652,999,4461,0,.44E-6,0
BEIDOU-2 M6 (C14),2012-050B,2026-07-02T09:39:35.358912,1.86231039,.0013275,56.5573,62.3914,359.5324,0.5356,0,U,38775,999,9359,0,-.38E-6,0
GSAT-10 (GAGAN/PRN 128),2012-051B,2026-07-02T19:04:38.192736,1.00270526,.0008086,0.0496,246.8058,206.3747,196.8210,0,U,38779,999,5025,0,-.154E-5,0
GPS BIIF-3  (PRN 24),2012-053A,2026-07-01T18:35:25.388160,2.00567786,.01811723,53.5881,143.0019,65.9876,295.8558,0,U,38833,999,9973,0,.33E-6,0
GSAT0103 (GALILEO-FM3),2012-055A,2026-06-29T19:03:19.372608,1.70473507,.00044239,55.8136,101.1997,307.4227,52.5245,0,U,38857,999,8522,0,-.25E-6,0
BEIDOU-2 G6 (C02),2012-059A,2026-07-02T19:30:48.201696,1.00270390,.0009455,4.4592,73.3602,329.8042,254.3996,0,U,38953,999,5006,0,-.167E-5,0
LUCH 5B (SDCM/PRN 125),2012-061A,2026-07-02T20:45:00.935424,1.00272620,.0003047,10.5159,49.7244,136.0927,30.0951,0,U,38977,999,4976,0,-.131E-5,0
COSMOS 2485 (747),2013-019A,2026-06-28T15:23:45.642336,2.13103400,.00228978,65.4258,73.2198,232.6425,127.1980,0,U,39155,999,10252,0,-.37E-6,0
GPS BIIF-4  (PRN 27),2013-023A,2026-07-02T15:20:22.496064,2.00563489,.0141428,54.4921,268.3439,51.0835,310.2387,0,U,39166,999,9619,0,-.8E-7,0
IRNSS-1A,2013-034A,2026-07-02T17:40:07.481280,1.00279523,.001784,35.7542,63.6474,181.6763,355.5578,0,U,39199,999,4752,0,.67E-6,0
GPS BIIF-5  (PRN 30),2014-008A,2026-07-01T15:26:58.047360,2.00560783,.00842152,53.6565,148.7302,231.4494,127.7567,0,U,39533,999,8997,0,.38E-6,0
ASTRA 5B (EGNOS/PRN 123),2014-011B,2026-07-02T20:26:31.721856,1.00274657,.0002215,0.0771,302.4799,165.1332,143.4210,0,U,39617,999,4482,0,.148E-5,0
COSMOS 2492 (754),2014-012A,2026-07-02T08:30:22.675104,2.13103547,.0010246,65.2879,313.4204,321.1510,38.7779,0,U,39620,999,9556,0,-.49E-6,0
IRNSS-1B,2014-017A,2026-07-02T17:39:52.503840,1.00271810,.0022895,28.8979,240.1346,194.2235,166.4341,0,U,39635,999,4495,0,.142E-5,0
LUCH 5V (SDCM/PRN 141),2014-023A,2026-07-02T19:19:29.608320,1.00269954,.0002636,5.1696,69.5910,56.8714,178.9914,0,U,39727,999,4451,0,-.26E-5,0
GPS BIIF-6  (PRN 06),2014-026A,2026-07-02T10:02:00.600000,2.00560005,.0038108,56.4903,330.9249,326.1840,33.5696,0,U,39741,999,8884,0,-.77E-6,0
COSMOS 2500 (755),2014-032A,2026-07-01T14:03:05.784768,2.13106189,.00078124,65.2235,313.1924,187.4639,172.5247,0,U,40001,999,9376,0,-.53E-6,0
GPS BIIF-7  (PRN 09),2014-045A,2026-07-01T12:18:16.604352,2.00559971,.00338619,55.3618,87.8943,118.3379,242.0338,0,U,40105,999,8636,0,-.21E-6,0
GSAT0201 (GALILEO 5),2014-050A,2026-06-29T06:35:26.939040,1.85520280,.16762517,48.8619,272.9404,179.8513,180.2703,0,U,40128,999,7854,0,-.39E-6,0
GSAT0202 (GALILEO 6),2014-050B,2026-06-30T14:35:38.438592,1.85520713,.16776984,48.8773,271.9714,180.6428,179.1780,0,U,40129,999,8073,0,-.31E-6,0
IRNSS-1C,2014-061A,2026-07-02T19:03:19.668096,1.00274305,.0022102,6.5564,88.6335,4.1504,196.8433,0,U,40269,999,4284,0,-.155E-5,0
GPS BIIF-8  (PRN 03),2014-068A,2026-07-02T09:05:07.844064,2.00577219,.0067371,56.9979,30.3698,71.1337,289.6561,0,U,40294,999,8551,0,-.59E-6,0
COSMOS 2501 (702K),2014-075A,2026-06-30T10:33:31.413888,2.13101453,.00226357,63.6170,189.9132,212.5837,147.3119,0,U,40315,999,9013,0,.79E-6,0
GPS BIIF-9  (PRN 26),2015-013A,2026-07-02T12:27:40.576896,2.00550488,.0109935,53.1670,203.5434,40.2607,320.5974,0,U,40534,999,8213,0,.68E-6,0
GSAT0203 (GALILEO 7),2015-017A,2026-07-01T06:58:44.031360,1.70476409,.00022941,56.7819,341.2117,263.0128,96.9526,0,U,40544,999,6944,0,-.82E-6,0
GSAT0204 (GALILEO 8),2015-017B,2026-06-30T08:57:46.055808,1.70475898,.0002318,56.7889,341.2552,237.2395,122.7292,0,U,40545,999,3247,0,-.85E-6,0
