BEIDOU-2 IGSO-5         
1 37948U 11073A   26183.72937883 -.00000128  00000+0  00000+0 0  9990
2 37948  47.6496 271.3544 0114527 222.0502 141.5350  1.00270596 53296
LUCH-5A                 
1 37951U 11074B   26183.67256291 -.00000043  00000+0  00000+0 0  9992
2 37951   8.7907  73.5828 0002701  42.8868 213.3031  1.00272754 53208
BEIDOU-2 G5             
1 38091U 12008A   26183.87935560  .00000066  00000+0  00000+0 0  9995
2 38091   3.6110  69.6055 0007738 275.8177 310.8475  1.00267783 52523
BEIDOU-2 M3             
1 38250U 12018A   26183.22352373 -.00000064  00000+0  00000+0 0  9996
2 38250  55.7439 304.3684 0020578 273.0142  86.7629  1.86230266 96223
BEIDOU-2 M4             
1 38251U 12018B   26182.08192837 -.00000069  00000+0  00000+0 0  9992
2 38251  55.6447 303.6195 0011579 274.1308  85.7452  1.86229794 96203
SES-5                   
1 38652U 12036A   26183.65487641  .00000044  00000+0  00000+0 0  9993
2 38652   0.0450 320.1883 0002268 138.1529  63.0821  1.00270830 44613
BEIDOU-2 M6             
1 38775U 12050B   26183.40249258 -.00000038  00000+0  00000+0 0  9992
2 38775  56.5573  62.3914 0013275 359.5324   0.5356  1.86231039 93595
GSAT-10                 
1 38779U 12051B   26183.79488649 -.00000154  00000+0  00000+0 0  9997
2 38779   0.0496 246.8058 0008086 206.3747 196.8210  1.00270526 50251
NAVSTAR 67 (USA 239)    
1 38833U 12053A   26182.77459940  .00000033  00000+0  00000+0 0  9994
2 38833  53.5881 143.0019 0181172  65.9876 295.8558  2.00567786 99737
GSAT0103 (GALILEO-FM3)  
1 38857U 12055A   26180.79397422 -.00000025  00000+0  00000+0 0  9990
2 38857  55.8136 101.1997 0004423 307.4227  52.5245  1.70473507 85221
BEIDOU-2 G6             
1 38953U 12059A   26183.81305789 -.00000167  00000+0  00000+0 0  9999
2 38953   4.4592  73.3602 0009455 329.8042 254.3996  1.00270390 50067
LUCH-5B                 
1 38977U 12061A   26183.86459416 -.00000131  00000+0  00000+0 0  9991
2 38977  10.5159  49.7244 0003047 136.0927  30.0951  1.00272620 49763
COSMOS 2485 [GLONASS-M] 
1 39155U 13019A   26179.64150049 -.00000037  00000+0  00000+0 0  9990
2 39155  65.4258  73.2198 0022897 232.6425 127.1980  2.13103400102529
NAVSTAR 68 (USA 242)    
1 39166U 13023A   26183.63914926 -.00000008  00000+0  00000+0 0  9991
2 39166  54.4921 268.3439 0141428  51.0835 310.2387  2.00563489 96195
IRNSS-1A                
1 39199U 13034A   26183.73619770  .00000067  00000+0  00000+0 0  9993
2 39199  35.7542  63.6474 0017840 181.6763 355.5578  1.00279523 47526
NAVSTAR 69 (USA 248)    
1 39533U 14008A   26182.64372740  .00000038  00000+0  00000+0 0  9997
2 39533  53.6565 148.7302 0084215 231.4494 127.7567  2.00560783 89976
ASTRA 5B                
1 39617U 14011B   26183.85175604  .00000148  00000+0  00000+0 0  9990
2 39617   0.0771 302.4799 0002215 165.1332 143.4210  1.00274657 44823
COSMOS 2492 [GLONASS-M] 
1 39620U 14012A   26183.35442911 -.00000049  00000+0  00000+0 0  9999
2 39620  65.2879 313.4204 0010246 321.1510  38.7779  2.13103547 95564
IRNSS-1B                
1 39635U 14017A   26183.73602435  .00000142  00000+0  00000+0 0  9994
2 39635  28.8979 240.1346 0022895 194.2235 166.4341  1.00271810 44950
LUCH-5V                 
1 39727U 14023A   26183.80520380 -.00000260  00000+0  00000+0 0  9991
2 39727   5.1696  69.5910 0002636  56.8714 178.9914  1.00269954 44514
NAVSTAR 70 (USA 251)    
1 39741U 14026A   26183.41806250 -.00000077  00000+0  00000+0 0  9996
2 39741  56.4903 330.9249 0038108 326.1840  33.5696  2.00560005 88845
COSMOS 2500 [GLONASS-M] 
1 40001U 14032A   26182.58548362 -.00000053  00000+0  00000+0 0  9992
2 40001  65.2235 313.1924 0007812 187.4639 172.5247  2.13106189 93763
NAVSTAR 71 (USA 256)    
1 40105U 14045A   26182.51269218 -.00000021  00000+0  00000+0 0  9999
2 40105  55.3618  87.8943 0033861 118.3379 242.0338  2.00559971 86365
GSAT0201 (GALILEO 5)    
1 40128U 14050A   26180.27461735 -.00000039  00000+0  00000+0 0  9998
2 40128  48.8619 272.9404 1676251 179.8513 180.2703  1.85520280 78549
GSAT0202 (GALILEO 6)    
1 40129U 14050B   26181.60808378 -.00000031  00000+0  00000+0 0  9997
2 40129  48.8773 271.9714 1677698 180.6428 179.1780  1.85520713 80732
IRNSS-1C                
1 40269U 14061A   26183.79397764 -.00000155  00000+0  00000+0 0  9995
2 40269   6.5564  88.6335 0022102   4.1504 196.8433  1.00274305 42847
NAVSTAR 72 (USA 258)    
1 40294U 14068A   26183.37856301 -.00000059  00000+0  00000+0 0  9994
2 40294  56.9979  30.3698 0067371  71.1337 289.6561  2.00577219 85510
COSMOS 2501 [GLONASS-K] 
1 40315U 14075A   26181.43994692  .00000079  00000+0  00000+0 0  9998
2 40315  63.6170 189.9132 0022635 212.5837 147.3119  2.13101453 90136
NAVSTAR 73 (USA 260)    
1 40534U 15013A   26183.51921964  .00000068  00000+0  00000+0 0  9995
2 40534  53.1670 203.5434 0109935  40.2607 320.5974  2.00550488 82133
GSAT0203 (GALILEO 7)    
1 40544U 15017A   26182.29078740 -.00000082  00000+0  00000+0 0  9996
2 40544  56.7819 341.2117 0002294 263.0128  96.9526  1.70476409 69441
GSAT0204 (GALILEO 8)    
1 40545U 15017B   26181.37344972 -.00000085  00000+0  00000+0 0  9991
2 40545  56.7889 341.2552 0002318 237.2395 122.7292  1.70475898 32470
